NORAD_CAT_ID,OBJECT_NAME,OBJECT_TYPE,EPOCH,MEAN_MOTION,ECCENTRICITY,INCLINATION,RA_OF_ASC_NODE,ARG_OF_PERICENTER,MEAN_ANOMALY,BSTAR,MEAN_MOTION_DOT,MEAN_MOTION_DDOT,TLE_LINE0,TLE_LINE1,TLE_LINE2,SEMIMAJOR_AXIS,PERIOD,APOGEE,PERIGEE,DECAYED
56792.0,STARLINK-6046,PAYLOAD,2024-02-08 11:23:56,14.98334006,0.0003181,69.9996,101.3818,263.3681,96.7116,-0.00026713,-3.279e-05,0.0,0 STARLINK-6046,1 56792U 23078AB  24039.47495391 -.00003279  00000-0 -26713-3 0  9994,2 56792  69.9996 101.3818 0003181 263.3681  96.7116 14.98334006 39069,6950.181,96.107,574.256,569.835,0.0
56792.0,STARLINK-6046,PAYLOAD,2024-02-08 13:00:03,14.98335749,0.0003165,69.9996,101.2136,262.5445,97.5355,-0.00025278,-3.108e-05,0.0,0 STARLINK-6046,1 56792U 23078AB  24039.54171219 -.00003108  00000-0 -25278-3 0  9998,2 56792  69.9996 101.2136 0003165 262.5445  97.5355 14.98335749 38813,6950.175,96.107,574.24,569.84,0.0
56792.0,STARLINK-6046,PAYLOAD,2024-02-09 11:25:56,14.98324125,0.000312,69.9995,98.857,261.6223,98.4582,0.00014539,1.642e-05,0.0,0 STARLINK-6046,1 56792U 23078AB  24040.47635068  .00001642  00000-0  14539-3 0  9996,2 56792  69.9995  98.8570 0003120 261.6223  98.4582 14.98324125 39213,6950.211,96.107,574.245,569.908,0.0
56792.0,STARLINK-6046,PAYLOAD,2024-02-09 13:02:04,14.9832544,0.0003113,69.9995,98.6888,261.3388,98.7419,0.0001572,1.783e-05,0.0,0 STARLINK-6046,1 56792U 23078AB  24040.54310979  .00001783  00000-0  15720-3 0  9994,2 56792  69.9995  98.6888 0003113 261.3388  98.7419 14.98325440 38968,6950.207,96.107,574.236,569.908,0.0
56792.0,STARLINK-6046,PAYLOAD,2024-02-10 11:27:58,14.98320392,0.0002809,70.0,96.3321,255.0066,105.0783,5.0628e-05,5.11e-06,0.0,0 STARLINK-6046,1 56792U 23078AB  24041.47776037  .00000511  00000-0  50628-4 0  9993,2 56792  70.0000  96.3321 0002809 255.0066 105.0783 14.98320392 39361,6950.223,96.108,574.04,570.135,0.0
56792.0,STARLINK-6046,PAYLOAD,2024-02-10 13:04:06,14.98320802,0.0002885,70.0001,96.1643,258.3672,101.7163,5.7821e-05,5.97e-06,0.0,0 STARLINK-6046,1 56792U 23078AB  24041.54452041  .00000597  00000-0  57821-4 0  9993,2 56792  70.0001  96.1643 0002885 258.3672 101.7163 14.98320802 39114,6950.221,96.108,574.091,570.081,0.0
56792.0,STARLINK-6046,PAYLOAD,2024-02-11 03:29:18,14.98330049,0.0003036,69.9996,94.6489,260.2884,99.7933,5.5975e-06,-2.6e-07,0.0,0 STARLINK-6046,1 56792U 23078AB  24042.14535676 -.00000026  00000-0  55975-5 0  9993,2 56792  69.9996  94.6489 0003036 260.2884  99.7933 14.98330049 39464,6950.193,96.107,574.168,569.948,0.0
56792.0,STARLINK-6046,PAYLOAD,2024-02-11 13:06:06,14.98333919,0.0002878,69.9999,93.6392,258.8098,101.2738,5.4939e-05,5.63e-06,0.0,0 STARLINK-6046,1 56792U 23078AB  24042.54591252  .00000563  00000-0  54939-4 0  9992,2 56792  69.9999  93.6392 0002878 258.8098 101.2738 14.98333919 39261,6950.181,96.107,574.046,570.046,0.0
56792.0,STARLINK-6046,PAYLOAD,2024-02-12 03:31:19,14.98334283,0.0002965,69.9997,92.1241,265.6132,94.4688,0.00010444,1.153e-05,0.0,0 STARLINK-6046,1 56792U 23078AB  24043.14674907  .00001153  00000-0  10444-3 0  9996,2 56792  69.9997  92.1241 0002965 265.6132  94.4688 14.98334283 39619,6950.18,96.107,574.105,569.984,0.0
56792.0,STARLINK-6046,PAYLOAD,2024-02-12 11:31:58,14.98342995,0.0002773,70.0001,91.2822,261.5948,98.4897,0.0002034,2.336e-05,0.0,0 STARLINK-6046,1 56792U 23078AB  24043.48053915  .00002336  00000-0  20340-3 0  9993,2 56792  70.0001  91.2822 0002773 261.5948  98.4897 14.98342995 39660,6950.153,96.106,573.945,570.09,0.0
56792.0,STARLINK-6046,PAYLOAD,2024-02-12 13:08:06,14.9834371,0.0002774,70.0001,91.114,261.769,98.3155,0.000207,2.379e-05,0.0,0 STARLINK-6046,1 56792U 23078AB  24043.54729809  .00002379  00000-0  20700-3 0  9999,2 56792  70.0001  91.1140 0002774 261.7690  98.3155 14.98343710 39414,6950.15,96.106,573.943,570.088,0.0
56792.0,STARLINK-6046,PAYLOAD,2024-02-13 03:33:20,14.9833077,0.0002143,70.0029,89.6033,223.4758,136.6232,1.6961e-06,-7.3e-07,0.0,0 STARLINK-6046,1 56792U 23078AB  24044.14815134 -.00000073  00000-0  16961-5 0  9999,2 56792  70.0029  89.6033 0002143 223.4758 136.6232 14.98330770 39769,6950.191,96.107,573.545,570.566,0.0
56792.0,STARLINK-6046,PAYLOAD,2024-02-13 11:34:01,14.98321589,0.0002674,70.0009,88.7593,248.3309,111.7565,-0.00012046,-1.53e-05,0.0,0 STARLINK-6046,1 56792U 23078AB  24044.48195989 -.00001530  00000-0 -12046-3 0  9993,2 56792  70.0009  88.7593 0002674 248.3309 111.7565 14.98321589 39812,6950.219,96.108,573.942,570.225,0.0
56792.0,STARLINK-6046,PAYLOAD,2024-02-13 13:10:09,14.98322895,0.0002771,70.0001,88.5891,262.1697,97.9147,-0.00011602,-1.477e-05,0.0,0 STARLINK-6046,1 56792U 23078AB  24044.54871981 -.00001477  00000-0 -11602-3 0  9990,2 56792  70.0001  88.5891 0002771 262.1697  97.9147 14.98322895 39569,6950.215,96.107,574.006,570.154,0.0
56792.0,STARLINK-6046,PAYLOAD,2024-02-13 19:34:41,14.98325211,0.0002637,70.0006,87.9171,253.7461,106.3408,-0.00010567,-1.353e-05,0.0,0 STARLINK-6046,1 56792U 23078AB  24044.81575940 -.00001353  00000-0 -10567-3 0  9998,2 56792  70.0006  87.9171 0002637 253.7461 106.3408 14.98325211 39609,6950.208,96.107,573.905,570.24,0.0
56792.0,STARLINK-6046,PAYLOAD,2024-02-14 05:11:29,14.98334955,0.0002999,69.9991,86.9047,265.2249,94.8568,-0.00011418,-1.455e-05,0.0,0 STARLINK-6046,1 56792U 23078AB  24045.21631217 -.00001455  00000-0 -11418-3 0  9992,2 56792  69.9991  86.9047 0002999 265.2249  94.8568 14.98334955 39921,6950.178,96.107,574.127,569.958,0.0
56792.0,STARLINK-6046,PAYLOAD,2024-02-14 13:12:09,14.98340657,0.0002879,69.9994,86.0632,264.6206,95.4624,-4.0686e-05,-5.79e-06,0.0,0 STARLINK-6046,1 56792U 23078AB  24045.55010519 -.00000579  00000-0 -40686-4 0  9991,2 56792  69.9994  86.0632 0002879 264.6206  95.4624 14.98340657 39711,6950.16,96.106,574.026,570.024,0.0
56792.0,STARLINK-6046,PAYLOAD,2024-02-14 19:36:41,14.98328102,0.0002579,70.0002,85.3896,263.0705,97.0161,-1.2995e-05,-2.48e-06,0.0,0 STARLINK-6046,1 56792U 23078AB  24045.81715277 -.00000248  00000-0 -12995-4 0  9998,2 56792  70.0002  85.3896 0002579 263.0705  97.0161 14.98328102 39751,6950.199,96.107,573.856,570.271,0.0
56792.0,STARLINK-6046,PAYLOAD,2024-02-15 03:37:22,14.98317963,0.0002683,70.0013,84.5485,268.3796,91.7056,0.00012843,1.439e-05,0.0,0 STARLINK-6046,1 56792U 23078AB  24046.15095534  .00001439  00000-0  12843-3 0  9995,2 56792  70.0013  84.5485 0002683 268.3796  91.7056 14.98317963 40065,6950.23,96.108,573.96,570.23,0.0
56792.0,STARLINK-6046,PAYLOAD,2024-02-15 11:38:03,14.98320209,0.0002836,69.9994,83.7068,266.6619,93.4216,5.0822e-05,5.13e-06,0.0,0 STARLINK-6046,1 56792U 23078AB  24046.48475801  .00000513  00000-0  50822-4 0  9992,2 56792  69.9994  83.7068 0002836 266.6619  93.4216 14.98320209 39852,6950.223,96.108,574.059,570.117,0.0
56792.0,STARLINK-6046,PAYLOAD,2024-02-15 19:38:43,14.9832717,0.000296,69.9993,82.8649,266.6061,93.476,5.9892e-05,6.22e-06,0.0,0 STARLINK-6046,1 56792U 23078AB  24046.81855419  .00000622  00000-0  59892-4 0  9993,2 56792  69.9993  82.8649 0002960 266.6061  93.4760 14.98327170 39909,6950.202,96.107,574.124,570.009,0.0
56792.0,STARLINK-6046,PAYLOAD,2024-02-16 03:39:23,14.98330608,0.0002932,69.9989,82.0232,267.1957,92.8866,3.0834e-05,2.75e-06,0.0,0 STARLINK-6046,1 56792U 23078AB  24047.15235329  .00000275  00000-0  30834-4 0  9992,2 56792  69.9989  82.0232 0002932 267.1957  92.8866 14.98330608 40219,6950.191,96.107,574.094,570.018,0.0
56792.0,STARLINK-6046,PAYLOAD,2024-02-16 13:16:11,14.98339052,0.0003011,69.9988,81.013,269.1796,90.9018,6.7796e-05,7.16e-06,0.0,0 STARLINK-6046,1 56792U 23078AB  24047.55290599  .00000716  00000-0  67796-4 0  9993,2 56792  69.9988  81.0130 0003011 269.1796  90.9018 14.98339052 40014,6950.165,96.106,574.123,569.937,0.0
56792.0,STARLINK-6046,PAYLOAD,2024-02-16 19:40:44,14.9832298,0.000314,69.9988,80.3396,267.9925,92.0875,-0.00010646,-1.363e-05,0.0,0 STARLINK-6046,1 56792U 23078AB  24047.81995886 -.00001363  00000-0 -10646-3 0  9995,2 56792  69.9988  80.3396 0003140 267.9925  92.0875 14.98322980 40312,6950.215,96.107,574.262,569.897,0.0
56792.0,STARLINK-6046,PAYLOAD,2024-02-16 21:16:52,14.98325433,0.0002903,69.9988,80.1712,268.7803,91.3023,-6.2012e-05,-8.33e-06,0.0,0 STARLINK-6046,1 56792U 23078AB  24047.88671750 -.00000833  00000-0 -62012-4 0  9999,2 56792  69.9988  80.1712 0002903 268.7803  91.3023 14.98325433 40067,6950.207,96.107,574.09,570.054,0.0
56792.0,STARLINK-6046,PAYLOAD,2024-02-17 11:42:04,14.98327403,0.0003063,69.9987,78.6561,269.6775,90.4033,3.5441e-05,3.3e-06,0.0,0 STARLINK-6046,1 56792U 23078AB  24048.48755566  .00000330  00000-0  35441-4 0  9990,2 56792  69.9987  78.6561 0003063 269.6775  90.4033 14.98327403 40415,6950.201,96.107,574.195,569.937,0.0
56792.0,STARLINK-6046,PAYLOAD,2024-02-17 13:18:12,14.98328283,0.0003091,69.9987,78.4878,268.5281,91.5524,3.9485e-05,3.78e-06,0.0,0 STARLINK-6046,1 56792U 23078AB  24048.55431488  .00000378  00000-0  39485-4 0  9996,2 56792  69.9987  78.4878 0003091 268.5281  91.5524 14.98328283 40161,6950.198,96.107,574.212,569.915,0.0
56792.0,STARLINK-6046,PAYLOAD,2024-02-17 21:18:53,14.98328605,0.0003095,69.9987,77.646,269.7618,90.3187,-2.3081e-06,-1.21e-06,0.0,0 STARLINK-6046,1 56792U 23078AB  24048.88811598 -.00000121  00000-0 -23081-5 0  9990,2 56792  69.9987  77.6460 0003095 269.7618  90.3187 14.98328605 40216,6950.197,96.107,574.213,569.911,0.0
56792.0,STARLINK-6046,PAYLOAD,2024-02-18 11:44:05,14.98336868,0.00031,69.9987,76.131,270.1542,89.9261,6.2089e-05,6.48e-06,0.0,0 STARLINK-6046,1 56792U 23078AB  24049.48894847  .00000648  00000-0  62089-4 0  9997,2 56792  69.9987  76.1310 0003100 270.1542  89.9261 14.98336868 40568,6950.172,96.107,574.191,569.882,0.0
56792.0,STARLINK-6046,PAYLOAD,2024-02-18 13:20:13,14.98338801,0.0003106,69.9987,75.9626,270.3334,89.7469,6.5585e-05,6.9e-06,0.0,0 STARLINK-6046,1 56792U 23078AB  24049.55570680  .00000690  00000-0  65585-4 0  9992,2 56792  69.9987  75.9626 0003106 270.3334  89.7469 14.98338801 40312,6950.166,96.106,574.189,569.872,0.0
